[
    {
        "Altitude(m)": 605459.0041124439,
        "Argument of Periapsis(deg)": 0.0,
        "Eccentricity": 0.0,
        "Inclination(deg)": 60.0,
        "Latitude(deg)": 27.98813384989797,
        "Longitude(deg)": -62.201437881446026,
        "Mean Anomaly(deg)": 32.7273,
        "RAAN(deg)": 20.0,
        "Satellite Name": "Test1 90",
        "Satellite Number": 90,
        "Semi-Major Axis(m)": 6980739.136638005,
        "Time(s)": 0
    },
    {
        "Altitude(m)": 605535.794920532,
        "Argument of Periapsis(deg)": 0.00010418945913296404,
        "Eccentricity": 0.0,
        "Inclination(deg)": 60.0,
        "Latitude(deg)": 28.50126363594999,
        "Longitude(deg)": -61.844493564014,
        "Mean Anomaly(deg)": 33.347406145461825,
        "RAAN(deg)": 19.99957995086026,
        "Satellite Name": "Test1 90",
        "Satellite Number": 90,
        "Semi-Major Axis(m)": 6980739.136638005,
        "Time(s)": 10
    }
]